{
"type": "FeatureCollection",
"name": "vancouver_union",
"crs": { "type": "name", "properties": { "name": "urn:ogc:def:crs:OGC:1.3:CRS84" } },
"features": [
{ "type": "Feature", "properties": { }, "geometry": { "type": "Polygon", "coordinates": [ [ [ -123.191296, 49.2194397 ], [ -123.1913064, 49.2203809 ], [ -123.1913378, 49.2207011 ], [ -123.1913484, 49.2208134 ], [ -123.1910971, 49.2255545 ], [ -123.1909438, 49.2265337 ], [ -123.1911188, 49.2273604 ], [ -123.1914362, 49.2280002 ], [ -123.1948424, 49.229807 ], [ -123.1964735, 49.2303381 ], [ -123.1970492, 49.230576 ], [ -123.1970432, 49.2306588 ], [ -123.1969985, 49.2312799 ], [ -123.1969908, 49.2313876 ], [ -123.1969778, 49.2315675 ], [ -123.1969483, 49.2319774 ], [ -123.1969137, 49.2324568 ], [ -123.1968979, 49.2326768 ], [ -123.1970375, 49.2329119 ], [ -123.1970636, 49.2329364 ], [ -123.1970801, 49.2349198 ], [ -123.1970812, 49.2350523 ], [ -123.1969246, 49.2352599 ], [ -123.1969063, 49.2353118 ], [ -123.1968334, 49.2355187 ], [ -123.1968317, 49.2356385 ], [ -123.1968357, 49.2364808 ], [ -123.198398, 49.2364899 ], [ -123.1983294, 49.2385905 ], [ -123.1968221, 49.2386395 ], [ -123.1968164, 49.2391127 ], [ -123.1968107, 49.2395787 ], [ -123.1968004, 49.2405449 ], [ -123.1967998, 49.2410288 ], [ -123.1967992, 49.2414744 ], [ -123.1967923, 49.2419645 ], [ -123.1967859, 49.2424216 ], [ -123.1967801, 49.2428916 ], [ -123.1967796, 49.2429269 ], [ -123.1967742, 49.2433653 ], [ -123.1967677, 49.2438805 ], [ -123.1967623, 49.2443134 ], [ -123.1967697, 49.2448246 ], [ -123.1967761, 49.2452658 ], [ -123.1967636, 49.2457784 ], [ -123.1967528, 49.24622 ], [ -123.1983432, 49.2462832 ], [ -123.1989132, 49.2463059 ], [ -123.199048, 49.246372 ], [ -123.1997782, 49.2467301 ], [ -123.1998947, 49.2467872 ], [ -123.1999893, 49.2468336 ], [ -123.2002005, 49.2469371 ], [ -123.2012153, 49.2474348 ], [ -123.2031736, 49.2484124 ], [ -123.2046068, 49.2491278 ], [ -123.2043187, 49.2493509 ], [ -123.2040132, 49.2494303 ], [ -123.2010542, 49.2499586 ], [ -123.200555, 49.2500477 ], [ -123.2000111, 49.250054 ], [ -123.1991162, 49.2500644 ], [ -123.1988322, 49.2501498 ], [ -123.196761, 49.2502408 ], [ -123.1967913, 49.2519602 ], [ -123.1967892, 49.2519687 ], [ -123.1966722, 49.2529068 ], [ -123.196481, 49.2539343 ], [ -123.196533, 49.2552007 ], [ -123.1965382, 49.2556161 ], [ -123.1965418, 49.2560872 ], [ -123.1965452, 49.2565233 ], [ -123.1980213, 49.2566093 ], [ -123.2010103, 49.25673 ], [ -123.2029236, 49.2566944 ], [ -123.203022, 49.2569202 ], [ -123.2032071, 49.257826 ], [ -123.2032363, 49.2579687 ], [ -123.2032264, 49.2581333 ], [ -123.2032224, 49.2581822 ], [ -123.2032155, 49.2582672 ], [ -123.2032293, 49.2582674 ], [ -123.2062717, 49.2583131 ], [ -123.2062854, 49.2583134 ], [ -123.2093104, 49.2583746 ], [ -123.2093241, 49.2583749 ], [ -123.2123217, 49.2584363 ], [ -123.2123354, 49.2584366 ], [ -123.2153746, 49.2585123 ], [ -123.2153883, 49.2585127 ], [ -123.2153687, 49.2593886 ], [ -123.215362, 49.2598499 ], [ -123.2153556, 49.2602934 ], [ -123.2153124, 49.2611966 ], [ -123.2153065, 49.261424 ], [ -123.2153008, 49.2616398 ], [ -123.215289, 49.2620904 ], [ -123.2152668, 49.2629869 ], [ -123.2152551, 49.2634483 ], [ -123.2152448, 49.2638555 ], [ -123.2152403, 49.2639995 ], [ -123.2152148, 49.2644022 ], [ -123.2151891, 49.2648079 ], [ -123.215145, 49.2652559 ], [ -123.2151325, 49.2653838 ], [ -123.2151221, 49.2654983 ], [ -123.2151122, 49.2656075 ], [ -123.2151027, 49.265673 ], [ -123.2151012, 49.2657441 ], [ -123.2150869, 49.2661281 ], [ -123.2150716, 49.2665351 ], [ -123.2150567, 49.2669376 ], [ -123.2150408, 49.2673683 ], [ -123.2170183, 49.2673815 ], [ -123.2186666, 49.2672889 ], [ -123.2195685, 49.2672383 ], [ -123.2195373, 49.2680112 ], [ -123.2195404, 49.268792 ], [ -123.2195405, 49.2688048 ], [ -123.2195988, 49.2689792 ], [ -123.220243, 49.2689112 ], [ -123.2215235, 49.268776 ], [ -123.2215571, 49.2687725 ], [ -123.2214866, 49.2705584 ], [ -123.222165, 49.2710734 ], [ -123.2239127, 49.2728648 ], [ -123.2239581, 49.2747609 ], [ -123.2239601, 49.274845 ], [ -123.2242208, 49.2765432 ], [ -123.2238657, 49.277386 ], [ -123.2238019, 49.277816 ], [ -123.2237683, 49.2780907 ], [ -123.2231812, 49.2780859 ], [ -123.2220273, 49.2782497 ], [ -123.2215864, 49.2780802 ], [ -123.2208584, 49.278009 ], [ -123.218807, 49.2775191 ], [ -123.2178178, 49.2774849 ], [ -123.2165811, 49.2775946 ], [ -123.2163731, 49.2775419 ], [ -123.2161779, 49.2769394 ], [ -123.2160412, 49.2767956 ], [ -123.2155596, 49.2766518 ], [ -123.2137447, 49.2766916 ], [ -123.2134426, 49.2769893 ], [ -123.2136047, 49.2763228 ], [ -123.2135346, 49.2761348 ], [ -123.2133559, 49.2760265 ], [ -123.2118854, 49.2759211 ], [ -123.2116538, 49.2764524 ], [ -123.2116917, 49.2755893 ], [ -123.2111267, 49.2753386 ], [ -123.2091477, 49.2753871 ], [ -123.20544, 49.2758939 ], [ -123.2047506, 49.2759881 ], [ -123.2032123, 49.2763598 ], [ -123.2020852, 49.276488 ], [ -123.2013002, 49.2760749 ], [ -123.1996623, 49.275511 ], [ -123.1988014, 49.2754285 ], [ -123.1981902, 49.27537 ], [ -123.1982716, 49.2751805 ], [ -123.1977067, 49.2749028 ], [ -123.1969065, 49.2742477 ], [ -123.1967392, 49.273762 ], [ -123.1963261, 49.2732863 ], [ -123.1954582, 49.2729004 ], [ -123.1945645, 49.2727138 ], [ -123.1922682, 49.2726369 ], [ -123.1893955, 49.2729559 ], [ -123.1885985, 49.2731639 ], [ -123.1884354, 49.2736239 ], [ -123.1882023, 49.2736424 ], [ -123.1877078, 49.2735982 ], [ -123.1866741, 49.273339 ], [ -123.1857, 49.2732979 ], [ -123.1842142, 49.2732351 ], [ -123.1837587, 49.2731453 ], [ -123.1833197, 49.2728577 ], [ -123.1827678, 49.2726611 ], [ -123.181406, 49.2726184 ], [ -123.1785734, 49.272137 ], [ -123.1774316, 49.2721028 ], [ -123.1751491, 49.2718365 ], [ -123.1726343, 49.271714 ], [ -123.1710252, 49.271734 ], [ -123.1698432, 49.2719163 ], [ -123.1664236, 49.2728748 ], [ -123.1645705, 49.2739571 ], [ -123.1641488, 49.2740351 ], [ -123.1636924, 49.2741195 ], [ -123.1616313, 49.2742662 ], [ -123.1606956, 49.2744029 ], [ -123.1602424, 49.2743132 ], [ -123.1595802, 49.2739999 ], [ -123.1591549, 49.2738916 ], [ -123.1575335, 49.2739215 ], [ -123.1572813, 49.2738724 ], [ -123.1561577, 49.2736538 ], [ -123.1556196, 49.2736367 ], [ -123.1553454, 49.2738347 ], [ -123.1548953, 49.2746992 ], [ -123.1530731, 49.2767785 ], [ -123.1526226, 49.2776245 ], [ -123.1519773, 49.2779492 ], [ -123.1512896, 49.278076 ], [ -123.1504642, 49.2780418 ], [ -123.1498077, 49.2779146 ], [ -123.1497844, 49.277904 ], [ -123.1497845, 49.2779101 ], [ -123.1493099, 49.2778182 ], [ -123.1487872, 49.2780617 ], [ -123.1484718, 49.2783323 ], [ -123.1481722, 49.2790701 ], [ -123.1480081, 49.2791783 ], [ -123.1474035, 49.2792509 ], [ -123.1473949, 49.2792469 ], [ -123.14721, 49.2791612 ], [ -123.1477593, 49.2788365 ], [ -123.1477851, 49.27863 ], [ -123.1476617, 49.2784861 ], [ -123.1466017, 49.278254 ], [ -123.1462303, 49.2780204 ], [ -123.1459699, 49.278056 ], [ -123.1457913, 49.2781742 ], [ -123.1454065, 49.2786243 ], [ -123.1450084, 49.2788408 ], [ -123.1444448, 49.2789219 ], [ -123.143826, 49.2788507 ], [ -123.1421351, 49.2783309 ], [ -123.1408948, 49.2777213 ], [ -123.1404543, 49.2772983 ], [ -123.1400665, 49.2766332 ], [ -123.1398467, 49.2765706 ], [ -123.1394628, 49.2766161 ], [ -123.1394333, 49.2764723 ], [ -123.1399567, 49.2761932 ], [ -123.1399961, 49.2760393 ], [ -123.1392926, 49.2751236 ], [ -123.1388248, 49.2749712 ], [ -123.1387841, 49.2749156 ], [ -123.1387393, 49.2748543 ], [ -123.1383705, 49.2743502 ], [ -123.1384789, 49.2742249 ], [ -123.1392755, 49.2740526 ], [ -123.139632, 49.2736025 ], [ -123.1398372, 49.2730271 ], [ -123.1398219, 49.2723521 ], [ -123.1395442, 49.2715972 ], [ -123.1389919, 49.2710489 ], [ -123.1387171, 49.2710945 ], [ -123.1384287, 49.2710489 ], [ -123.1377682, 49.2707983 ], [ -123.1373962, 49.2703397 ], [ -123.1371768, 49.2702955 ], [ -123.1369305, 49.2706017 ], [ -123.1374005, 49.2716627 ], [ -123.1374004, 49.2718778 ], [ -123.1370443, 49.272607 ], [ -123.1368115, 49.2729317 ], [ -123.1366058, 49.27304 ], [ -123.1354514, 49.2731852 ], [ -123.1345706, 49.2728534 ], [ -123.1343498, 49.2725472 ], [ -123.1337304, 49.2722509 ], [ -123.1336609, 49.2721516 ], [ -123.1335102, 49.2719362 ], [ -123.1324068, 49.2711596 ], [ -123.1324048, 49.2711582 ], [ -123.1321201, 49.2709578 ], [ -123.1318589, 49.2708951 ], [ -123.1315548, 49.2704094 ], [ -123.1307271, 49.2697814 ], [ -123.1305074, 49.2694581 ], [ -123.1307121, 49.2689183 ], [ -123.1305729, 49.2685494 ], [ -123.1306697, 49.2683871 ], [ -123.1325105, 49.2685466 ], [ -123.1329166, 49.268674 ], [ -123.1333175, 49.2687998 ], [ -123.1337087, 49.2689226 ], [ -123.1339001, 49.2688515 ], [ -123.1339273, 49.2688414 ], [ -123.1340233, 49.2686805 ], [ -123.1340094, 49.2684825 ], [ -123.1337893, 49.2684013 ], [ -123.1336779, 49.2684469 ], [ -123.1335702, 49.268491 ], [ -123.1333352, 49.2684284 ], [ -123.1332172, 49.2682913 ], [ -123.1329489, 49.2679797 ], [ -123.1323723, 49.2679 ], [ -123.1320535, 49.2676093 ], [ -123.1319733, 49.2675361 ], [ -123.1317804, 49.2673602 ], [ -123.1315038, 49.2673246 ], [ -123.1312568, 49.2674058 ], [ -123.1308864, 49.2676308 ], [ -123.1306819, 49.2679555 ], [ -123.1305364, 49.2679596 ], [ -123.1300209, 49.267974 ], [ -123.1293492, 49.2682261 ], [ -123.1282568, 49.2682035 ], [ -123.1282016, 49.2682023 ], [ -123.1281904, 49.2682021 ], [ -123.1256366, 49.2681492 ], [ -123.1248395, 49.2677362 ], [ -123.124316, 49.2678544 ], [ -123.1240566, 49.2681336 ], [ -123.1240289, 49.2683586 ], [ -123.1232467, 49.2682603 ], [ -123.1229566, 49.2683059 ], [ -123.1223109, 49.268585 ], [ -123.1217627, 49.2686662 ], [ -123.1214866, 49.2686221 ], [ -123.1213503, 49.2685326 ], [ -123.1213516, 49.2684178 ], [ -123.1211933, 49.2681957 ], [ -123.1211006, 49.267947 ], [ -123.1209553, 49.2678617 ], [ -123.1206738, 49.2676963 ], [ -123.1191063, 49.2676892 ], [ -123.118915, 49.2677875 ], [ -123.118805, 49.2679769 ], [ -123.1188059, 49.268642 ], [ -123.1189306, 49.2689211 ], [ -123.1188477, 49.2689211 ], [ -123.1187665, 49.2693626 ], [ -123.1184096, 49.2691462 ], [ -123.1184091, 49.2689938 ], [ -123.1181472, 49.2689938 ], [ -123.1180381, 49.269327 ], [ -123.1176139, 49.2694894 ], [ -123.1175711, 49.2696603 ], [ -123.117379, 49.26976 ], [ -123.1171604, 49.2700748 ], [ -123.1156228, 49.2706971 ], [ -123.1147745, 49.2711472 ], [ -123.1144686, 49.2713095 ], [ -123.1129305, 49.2716798 ], [ -123.112614, 49.2716798 ], [ -123.1124348, 49.271573 ], [ -123.1118302, 49.2716457 ], [ -123.1116807, 49.2717624 ], [ -123.1121334, 49.2718607 ], [ -123.1119555, 49.2719775 ], [ -123.1114475, 49.2720416 ], [ -123.1112669, 49.2719333 ], [ -123.110719, 49.2722666 ], [ -123.1105121, 49.2722851 ], [ -123.1104168, 49.2721228 ], [ -123.1100321, 49.2723307 ], [ -123.1097568, 49.2723848 ], [ -123.1084239, 49.2723948 ], [ -123.107831, 49.2723321 ], [ -123.1076946, 49.2721883 ], [ -123.1077211, 49.2719732 ], [ -123.1075142, 49.271892 ], [ -123.1072542, 49.2721797 ], [ -123.1070342, 49.2722709 ], [ -123.1053702, 49.2722452 ], [ -123.1031157, 49.2723635 ], [ -123.1029509, 49.2724802 ], [ -123.1029258, 49.2726967 ], [ -123.1029264, 49.2729217 ], [ -123.1030496, 49.2730656 ], [ -123.1033923, 49.2730656 ], [ -123.1039147, 49.2729303 ], [ -123.1042175, 49.2729659 ], [ -123.1043836, 49.2730727 ], [ -123.1043297, 49.273631 ], [ -123.1041496, 49.2737478 ], [ -123.1038209, 49.2737578 ], [ -123.1036964, 49.2739187 ], [ -123.1036307, 49.2748003 ], [ -123.1034675, 49.2753856 ], [ -123.103578, 49.275548 ], [ -123.1067792, 49.2755807 ], [ -123.107028, 49.2755081 ], [ -123.1070271, 49.2753372 ], [ -123.1072066, 49.275229 ], [ -123.1074663, 49.275256 ], [ -123.1085107, 49.274806 ], [ -123.1087708, 49.2742918 ], [ -123.1089769, 49.2742021 ], [ -123.1092931, 49.2741836 ], [ -123.1097192, 49.274336 ], [ -123.1100213, 49.274346 ], [ -123.110296, 49.2740668 ], [ -123.1102812, 49.2738859 ], [ -123.1110639, 49.2734815 ], [ -123.1113399, 49.273453 ], [ -123.1117654, 49.2735797 ], [ -123.1116154, 49.2734444 ], [ -123.1117234, 49.2733276 ], [ -123.1119309, 49.2733006 ], [ -123.1120822, 49.2734259 ], [ -123.1121081, 49.2732194 ], [ -123.1125076, 49.27302 ], [ -123.1137317, 49.2729289 ], [ -123.1147373, 49.2725836 ], [ -123.114885, 49.2725329 ], [ -123.1166708, 49.2725401 ], [ -123.1167964, 49.2725572 ], [ -123.1168237, 49.2727736 ], [ -123.1180465, 49.2727808 ], [ -123.1180473, 49.272691 ], [ -123.1170992, 49.2726925 ], [ -123.1170975, 49.2723236 ], [ -123.1171931, 49.2723321 ], [ -123.117195, 49.2726469 ], [ -123.1175115, 49.2726469 ], [ -123.1175508, 49.2723862 ], [ -123.1176463, 49.2723948 ], [ -123.1176485, 49.2726554 ], [ -123.1180043, 49.2726554 ], [ -123.1180037, 49.2721698 ], [ -123.1181408, 49.2721512 ], [ -123.1182239, 49.2723848 ], [ -123.1183352, 49.2723848 ], [ -123.118335, 49.2726996 ], [ -123.1186384, 49.2726996 ], [ -123.1186794, 49.2724475 ], [ -123.1186782, 49.272691 ], [ -123.1188986, 49.272691 ], [ -123.1188977, 49.2725201 ], [ -123.1190086, 49.2725287 ], [ -123.1190085, 49.2727167 ], [ -123.1191873, 49.2727437 ], [ -123.1194217, 49.2725814 ], [ -123.1193667, 49.2724019 ], [ -123.1195164, 49.272231 ], [ -123.1194332, 49.2721854 ], [ -123.1192563, 49.2723122 ], [ -123.1194195, 49.2721598 ], [ -123.1193232, 49.2721142 ], [ -123.1191586, 49.2722039 ], [ -123.1190893, 49.2721683 ], [ -123.1192689, 49.2720601 ], [ -123.1191583, 49.2719974 ], [ -123.1189946, 49.2720971 ], [ -123.1191027, 49.2719533 ], [ -123.1190344, 49.2718892 ], [ -123.1188969, 49.2719889 ], [ -123.1188146, 49.2719533 ], [ -123.11968, 49.2713765 ], [ -123.1195287, 49.2712512 ], [ -123.1195409, 49.2710802 ], [ -123.1197196, 49.270962 ], [ -123.1199109, 49.2708638 ], [ -123.1204072, 49.270962 ], [ -123.1205392, 49.2708937 ], [ -123.1209827, 49.2706644 ], [ -123.1213973, 49.2708524 ], [ -123.121891, 49.2707712 ], [ -123.1224838, 49.2710219 ], [ -123.1233892, 49.2704334 ], [ -123.1237175, 49.27022 ], [ -123.1243235, 49.2702827 ], [ -123.1244052, 49.2704536 ], [ -123.1246949, 49.2704892 ], [ -123.1247918, 49.2706601 ], [ -123.1251345, 49.2706601 ], [ -123.1258768, 49.2702727 ], [ -123.1262612, 49.2704792 ], [ -123.1272238, 49.2705405 ], [ -123.1278721, 49.2708011 ], [ -123.1292206, 49.2717795 ], [ -123.1297707, 49.2715189 ], [ -123.1300312, 49.2715175 ], [ -123.130155, 49.2716528 ], [ -123.1300452, 49.2717881 ], [ -123.1308159, 49.2722096 ], [ -123.1308301, 49.2723535 ], [ -123.1306806, 49.2724703 ], [ -123.1308442, 49.272597 ], [ -123.1314634, 49.27256 ], [ -123.1318212, 49.2727751 ], [ -123.1323709, 49.2728562 ], [ -123.1325511, 49.272973 ], [ -123.1327722, 49.2732863 ], [ -123.1332952, 49.2736638 ], [ -123.1332275, 49.2740511 ], [ -123.1333245, 49.2741224 ], [ -123.1336477, 49.2739073 ], [ -123.1340938, 49.2741936 ], [ -123.1344933, 49.2741936 ], [ -123.1342326, 49.27441 ], [ -123.1345486, 49.2744186 ], [ -123.1346994, 49.2745525 ], [ -123.1347689, 49.2749213 ], [ -123.1352933, 49.2754882 ], [ -123.1349508, 49.2757217 ], [ -123.1351973, 49.2757759 ], [ -123.1359533, 49.2756135 ], [ -123.136161, 49.2757203 ], [ -123.1361871, 49.2757507 ], [ -123.1362843, 49.2758642 ], [ -123.1362365, 49.2760405 ], [ -123.1362306, 49.2760621 ], [ -123.1363491, 49.2763313 ], [ -123.1363811, 49.2764039 ], [ -123.1363844, 49.2769352 ], [ -123.1368386, 49.2770961 ], [ -123.1373747, 49.2776886 ], [ -123.1376769, 49.2776715 ], [ -123.1378264, 49.2777372 ], [ -123.1381048, 49.2778595 ], [ -123.1383938, 49.2783722 ], [ -123.1386993, 49.2787132 ], [ -123.138773, 49.2787955 ], [ -123.1387957, 49.2788208 ], [ -123.1402056, 49.2798684 ], [ -123.1404882, 49.2800784 ], [ -123.1407099, 49.2804102 ], [ -123.1407784, 49.2806504 ], [ -123.1407935, 49.2807034 ], [ -123.1408504, 49.2809028 ], [ -123.1408515, 49.2809065 ], [ -123.1408769, 49.2809956 ], [ -123.1416219, 49.2816778 ], [ -123.1417447, 49.2818506 ], [ -123.1417702, 49.2818865 ], [ -123.1418502, 49.281999 ], [ -123.1420228, 49.2822418 ], [ -123.1421148, 49.2823713 ], [ -123.1424875, 49.2828954 ], [ -123.1426144, 49.2830741 ], [ -123.1427763, 49.2833017 ], [ -123.143098, 49.2837543 ], [ -123.1431882, 49.2838085 ], [ -123.1434817, 49.2839851 ], [ -123.1438324, 49.284196 ], [ -123.1438604, 49.2842128 ], [ -123.1439091, 49.2842421 ], [ -123.1440074, 49.2843012 ], [ -123.1440073, 49.284455 ], [ -123.1438141, 49.2846587 ], [ -123.1437345, 49.2847427 ], [ -123.143682, 49.285634 ], [ -123.1436712, 49.2858172 ], [ -123.1436626, 49.2859643 ], [ -123.1436239, 49.2866209 ], [ -123.1436182, 49.2867168 ], [ -123.1436154, 49.2867661 ], [ -123.1436041, 49.2869572 ], [ -123.1436034, 49.2869685 ], [ -123.1436021, 49.2869915 ], [ -123.1436016, 49.2870327 ], [ -123.1435914, 49.2879358 ], [ -123.143773, 49.2885111 ], [ -123.1446266, 49.2891221 ], [ -123.144836, 49.2892023 ], [ -123.1450341, 49.2892782 ], [ -123.1453295, 49.2893913 ], [ -123.1460658, 49.2897679 ], [ -123.146484, 49.2899818 ], [ -123.1465407, 49.2900108 ], [ -123.1472285, 49.2897844 ], [ -123.1473939, 49.2899197 ], [ -123.1474898, 49.2903156 ], [ -123.1480007, 49.2909266 ], [ -123.1496148, 49.2922283 ], [ -123.150152, 49.2928393 ], [ -123.1501705, 49.2941439 ], [ -123.1503909, 49.2946822 ], [ -123.150641, 49.2949799 ], [ -123.1517002, 49.2954371 ], [ -123.1521824, 49.2952918 ], [ -123.1524712, 49.2952833 ], [ -123.1528552, 49.2954798 ], [ -123.1534504, 49.2966847 ], [ -123.1544718, 49.2976546 ], [ -123.1547618, 49.2976631 ], [ -123.1560382, 49.2973384 ], [ -123.1566575, 49.2973555 ], [ -123.157747, 49.2977941 ], [ -123.1579117, 49.2979195 ], [ -123.1582983, 49.2985846 ], [ -123.1583823, 49.2989634 ], [ -123.1582616, 49.3001142 ], [ -123.1585261, 49.3007252 ], [ -123.15883, 49.301067 ], [ -123.1588303, 49.3011318 ], [ -123.1588308, 49.3012194 ], [ -123.1584457, 49.3014629 ], [ -123.1574843, 49.301725 ], [ -123.1570444, 49.3022035 ], [ -123.1568579, 49.3037587 ], [ -123.1565717, 49.3048126 ], [ -123.1564648, 49.3059549 ], [ -123.1561799, 49.306845 ], [ -123.1561286, 49.3082934 ], [ -123.1560206, 49.3086181 ], [ -123.1558555, 49.3087435 ], [ -123.1543575, 49.3092505 ], [ -123.1538487, 49.3096464 ], [ -123.1528334, 49.3100879 ], [ -123.1526145, 49.3104311 ], [ -123.1525882, 49.3110507 ], [ -123.1523694, 49.3113398 ], [ -123.151683, 49.3118254 ], [ -123.15148, 49.3119187 ], [ -123.1497997, 49.3126914 ], [ -123.1486308, 49.3127839 ], [ -123.1472152, 49.3131186 ], [ -123.1459901, 49.313291 ], [ -123.1450567, 49.3136342 ], [ -123.1439293, 49.3138421 ], [ -123.1414247, 49.3140785 ], [ -123.141261, 49.3140244 ], [ -123.1410658, 49.3135758 ], [ -123.1408597, 49.3133963 ], [ -123.140198, 49.3133152 ], [ -123.1397997, 49.3131087 ], [ -123.1393985, 49.3127227 ], [ -123.1388603, 49.3118511 ], [ -123.1377698, 49.311025 ], [ -123.1366127, 49.3098472 ], [ -123.1363074, 49.3091736 ], [ -123.1356709, 49.3082293 ], [ -123.1355162, 49.307033 ], [ -123.1351858, 49.3068265 ], [ -123.1333407, 49.3061642 ], [ -123.1322253, 49.3053097 ], [ -123.1319218, 49.3051673 ], [ -123.1317689, 49.3050135 ], [ -123.1317004, 49.3045193 ], [ -123.1312037, 49.3040251 ], [ -123.1309538, 49.3035309 ], [ -123.1303222, 49.303424 ], [ -123.1294263, 49.3027945 ], [ -123.1292195, 49.3027319 ], [ -123.1274581, 49.3025453 ], [ -123.1265646, 49.3027262 ], [ -123.1263725, 49.3026991 ], [ -123.1253787, 49.3017734 ], [ -123.1242764, 49.3011268 ], [ -123.1231889, 49.3006426 ], [ -123.1211665, 49.2999974 ], [ -123.1198865, 49.2998094 ], [ -123.118909, 49.2998194 ], [ -123.1184696, 49.3000273 ], [ -123.1177154, 49.3006853 ], [ -123.1172621, 49.3008832 ], [ -123.1168112, 49.3008593 ], [ -123.1167533, 49.3008562 ], [ -123.1163661, 49.3004617 ], [ -123.116368, 49.3004454 ], [ -123.1165945, 49.2985091 ], [ -123.116801, 49.2981844 ], [ -123.1174334, 49.2978867 ], [ -123.1188089, 49.2978682 ], [ -123.1194672, 49.2974096 ], [ -123.1203919, 49.2962831 ], [ -123.1207876, 49.295937 ], [ -123.1222396, 49.2950696 ], [ -123.1229021, 49.2951565 ], [ -123.1239734, 49.2950468 ], [ -123.124016, 49.2958743 ], [ -123.1239061, 49.2962788 ], [ -123.1239086, 49.2969539 ], [ -123.1239664, 49.2975933 ], [ -123.124159, 49.2977001 ], [ -123.1251627, 49.2977172 ], [ -123.1259055, 49.2975093 ], [ -123.1266332, 49.2970592 ], [ -123.127415, 49.2961492 ], [ -123.1276475, 49.2960053 ], [ -123.1281147, 49.2959056 ], [ -123.1284164, 49.2959512 ], [ -123.1291466, 49.2964184 ], [ -123.1300033, 49.2974965 ], [ -123.1304846, 49.2976218 ], [ -123.1310348, 49.2975221 ], [ -123.1321602, 49.2968641 ], [ -123.1324225, 49.29681 ], [ -123.1329597, 49.2969254 ], [ -123.1336339, 49.296961 ], [ -123.1339071, 49.2969069 ], [ -123.1340173, 49.296763 ], [ -123.1344581, 49.2967174 ], [ -123.1344426, 49.2966448 ], [ -123.1349516, 49.2966177 ], [ -123.1351451, 49.2964924 ], [ -123.1354868, 49.2960016 ], [ -123.1355998, 49.2959596 ], [ -123.1357145, 49.2953068 ], [ -123.1355079, 49.2951791 ], [ -123.135216, 49.2951964 ], [ -123.1350166, 49.2952359 ], [ -123.1347033, 49.2953306 ], [ -123.1346375, 49.2953505 ], [ -123.134378, 49.2952715 ], [ -123.1341426, 49.2951538 ], [ -123.1338563, 49.2950418 ], [ -123.1337199, 49.2949319 ], [ -123.1335846, 49.294676 ], [ -123.1337295, 49.2945586 ], [ -123.1337846, 49.2944786 ], [ -123.1337234, 49.2944152 ], [ -123.1333349, 49.2942237 ], [ -123.1329652, 49.2940439 ], [ -123.1328044, 49.2939607 ], [ -123.1326703, 49.2938197 ], [ -123.1325584, 49.293683 ], [ -123.1324873, 49.2935919 ], [ -123.1324394, 49.2935765 ], [ -123.1323097, 49.2935351 ], [ -123.1322343, 49.2935219 ], [ -123.1320638, 49.293587 ], [ -123.131431, 49.2931554 ], [ -123.1313411, 49.2932114 ], [ -123.1312775, 49.293251 ], [ -123.1310923, 49.2931231 ], [ -123.1306348, 49.2928073 ], [ -123.1294986, 49.293576 ], [ -123.1287171, 49.2931597 ], [ -123.1278939, 49.2928999 ], [ -123.1275503, 49.292723 ], [ -123.1273267, 49.2928663 ], [ -123.1271328, 49.2927855 ], [ -123.127101, 49.2926945 ], [ -123.127401, 49.2925059 ], [ -123.1282059, 49.291973 ], [ -123.1282944, 49.2919144 ], [ -123.1266412, 49.2908632 ], [ -123.1264292, 49.2907284 ], [ -123.1258345, 49.2905744 ], [ -123.125226, 49.2904902 ], [ -123.1244149, 49.2906442 ], [ -123.1240217, 49.2908661 ], [ -123.1233756, 49.2912309 ], [ -123.1235009, 49.2912799 ], [ -123.1235445, 49.2913853 ], [ -123.123401, 49.2914356 ], [ -123.123284, 49.2914487 ], [ -123.1225989, 49.2910105 ], [ -123.1221068, 49.2907543 ], [ -123.1214362, 49.2904052 ], [ -123.1201031, 49.290008 ], [ -123.1189938, 49.2898669 ], [ -123.1182586, 49.2900964 ], [ -123.1179263, 49.2903362 ], [ -123.1176336, 49.2905473 ], [ -123.1168094, 49.2901844 ], [ -123.1166348, 49.2901075 ], [ -123.1156532, 49.2898102 ], [ -123.1139237, 49.2895703 ], [ -123.1144574, 49.2889779 ], [ -123.1149134, 49.2884717 ], [ -123.1149462, 49.2883209 ], [ -123.114202, 49.2880706 ], [ -123.1138467, 49.2882785 ], [ -123.11316, 49.2884631 ], [ -123.1135298, 49.288863 ], [ -123.11072, 49.289837 ], [ -123.1104343, 49.2894355 ], [ -123.1097424, 49.2895129 ], [ -123.1068442, 49.2898372 ], [ -123.1067686, 49.2897881 ], [ -123.1067989, 49.2897316 ], [ -123.1076068, 49.2894414 ], [ -123.1126709, 49.287622 ], [ -123.1127671, 49.287514 ], [ -123.1116086, 49.287 ], [ -123.1110897, 49.2867823 ], [ -123.1092771, 49.2873608 ], [ -123.1086656, 49.2872033 ], [ -123.1088325, 49.2866434 ], [ -123.1095484, 49.2863558 ], [ -123.1090166, 49.2862262 ], [ -123.108698, 49.2863167 ], [ -123.1074614, 49.2866681 ], [ -123.1070004, 49.2866251 ], [ -123.1065876, 49.2871968 ], [ -123.1054139, 49.2868552 ], [ -123.1057179, 49.2863588 ], [ -123.1055043, 49.2863407 ], [ -123.1040547, 49.2860956 ], [ -123.1037128, 49.2863546 ], [ -123.1033932, 49.2863456 ], [ -123.1032307, 49.2864768 ], [ -123.1030649, 49.2863955 ], [ -123.1032569, 49.2863005 ], [ -123.1031201, 49.2859769 ], [ -123.1031638, 49.285683 ], [ -123.1028437, 49.2853957 ], [ -123.1022133, 49.2853191 ], [ -123.1014822, 49.2853798 ], [ -123.1012298, 49.2855052 ], [ -123.100883, 49.2855151 ], [ -123.1010393, 49.2860362 ], [ -123.1012407, 49.2866993 ], [ -123.0997375, 49.2865101 ], [ -123.0997374, 49.2865101 ], [ -123.0997124, 49.2869123 ], [ -123.0996873, 49.287316 ], [ -123.0996872, 49.2873165 ], [ -123.0996872, 49.287317 ], [ -123.0996776, 49.2877568 ], [ -123.1001648, 49.2880228 ], [ -123.1002707, 49.2884974 ], [ -123.100092, 49.2893065 ], [ -123.100127, 49.2902183 ], [ -123.0991245, 49.2902673 ], [ -123.0966394, 49.2893738 ], [ -123.0948751, 49.2888635 ], [ -123.0918595, 49.2878902 ], [ -123.091779, 49.2895266 ], [ -123.089523, 49.2888985 ], [ -123.0896267, 49.2856428 ], [ -123.0889665, 49.2854448 ], [ -123.0881705, 49.2854548 ], [ -123.0880908, 49.2881622 ], [ -123.0866883, 49.2881366 ], [ -123.0867789, 49.2848353 ], [ -123.0857747, 49.284747 ], [ -123.0857752, 49.2846387 ], [ -123.0853634, 49.2845761 ], [ -123.0852964, 49.2862224 ], [ -123.0847335, 49.2862139 ], [ -123.084733, 49.2865828 ], [ -123.0845539, 49.2865828 ], [ -123.0845535, 49.286231 ], [ -123.084031, 49.2862053 ], [ -123.084137, 49.2837856 ], [ -123.083958, 49.2837856 ], [ -123.0838083, 49.2846843 ], [ -123.0835489, 49.2846757 ], [ -123.0835598, 49.283948 ], [ -123.082776, 49.283948 ], [ -123.082791, 49.2845689 ], [ -123.0830809, 49.2845775 ], [ -123.0830428, 49.2866098 ], [ -123.0829315, 49.2866098 ], [ -123.0829437, 49.2856841 ], [ -123.0827931, 49.2856841 ], [ -123.0827682, 49.2866013 ], [ -123.0826989, 49.2865927 ], [ -123.0827099, 49.2856385 ], [ -123.0829575, 49.2856485 ], [ -123.0829703, 49.2846757 ], [ -123.0823647, 49.2846772 ], [ -123.0819822, 49.2852525 ], [ -123.0822018, 49.2860359 ], [ -123.082162, 49.286278 ], [ -123.0823819, 49.2864133 ], [ -123.0823855, 49.2879244 ], [ -123.0822047, 49.2879158 ], [ -123.0822311, 49.2864403 ], [ -123.0820247, 49.2863236 ], [ -123.0818038, 49.286305 ], [ -123.0815573, 49.2863506 ], [ -123.0811995, 49.2869901 ], [ -123.0811996, 49.287124 ], [ -123.0813939, 49.287124 ], [ -123.0813935, 49.2872051 ], [ -123.0811861, 49.2872051 ], [ -123.0811753, 49.2880326 ], [ -123.0811054, 49.2880326 ], [ -123.0810762, 49.2873404 ], [ -123.080596, 49.2873134 ], [ -123.0806232, 49.2871966 ], [ -123.0810905, 49.2871966 ], [ -123.081076, 49.2870342 ], [ -123.0806635, 49.2871069 ], [ -123.0804296, 49.2870613 ], [ -123.0803193, 49.2869445 ], [ -123.0802629, 49.2855417 ], [ -123.0800979, 49.2851187 ], [ -123.0799459, 49.2851287 ], [ -123.0797957, 49.2855417 ], [ -123.0797563, 49.286963 ], [ -123.079701, 49.2870983 ], [ -123.079234, 49.2871439 ], [ -123.0791688, 49.2893657 ], [ -123.0789068, 49.2893657 ], [ -123.0788621, 49.2869459 ], [ -123.0779251, 49.2872333 ], [ -123.0772137, 49.2874515 ], [ -123.0771611, 49.2895551 ], [ -123.0698023, 49.2880041 ], [ -123.0697761, 49.289632 ], [ -123.068552, 49.289642 ], [ -123.0685768, 49.2865842 ], [ -123.0672694, 49.2865756 ], [ -123.0672463, 49.2891478 ], [ -123.0670131, 49.2891392 ], [ -123.0670244, 49.2873846 ], [ -123.0661987, 49.2873775 ], [ -123.0661463, 49.2892119 ], [ -123.065994, 49.2892033 ], [ -123.0660331, 49.2874572 ], [ -123.0658131, 49.2874487 ], [ -123.0658001, 49.2871881 ], [ -123.0654966, 49.2871881 ], [ -123.0654977, 49.2874045 ], [ -123.0653842, 49.2873874 ], [ -123.0653188, 49.2873775 ], [ -123.0653188, 49.2872778 ], [ -123.0649752, 49.2872792 ], [ -123.0649336, 49.2871339 ], [ -123.0646992, 49.2871354 ], [ -123.064673, 49.2878361 ], [ -123.0645621, 49.2878275 ], [ -123.0645901, 49.2871083 ], [ -123.0644657, 49.2871083 ], [ -123.0644656, 49.2872692 ], [ -123.0641351, 49.2872707 ], [ -123.0641232, 49.2879272 ], [ -123.0638895, 49.2879272 ], [ -123.0638884, 49.2875042 ], [ -123.0636956, 49.2875398 ], [ -123.0636833, 49.2880169 ], [ -123.0633808, 49.2883944 ], [ -123.0626781, 49.2881793 ], [ -123.0626527, 49.2883502 ], [ -123.0629546, 49.2884755 ], [ -123.0624324, 49.2891691 ], [ -123.0620487, 49.2890609 ], [ -123.062213, 49.2892859 ], [ -123.062049, 49.28934 ], [ -123.0618696, 49.2891606 ], [ -123.0613737, 49.2897545 ], [ -123.0610576, 49.2899069 ], [ -123.0605625, 49.2898713 ], [ -123.0603857, 49.2899439 ], [ -123.060508, 49.2901775 ], [ -123.0606324, 49.2901048 ], [ -123.061045, 49.2903655 ], [ -123.0611961, 49.2902843 ], [ -123.0616497, 49.2906261 ], [ -123.0614728, 49.2907258 ], [ -123.0610863, 49.2904922 ], [ -123.0608666, 49.2905634 ], [ -123.0605772, 49.2903128 ], [ -123.0603575, 49.290384 ], [ -123.0609349, 49.2908611 ], [ -123.0607987, 49.2909238 ], [ -123.0601378, 49.2903939 ], [ -123.0603166, 49.2902757 ], [ -123.0601784, 49.2901504 ], [ -123.0595318, 49.2904381 ], [ -123.0596435, 49.2905563 ], [ -123.059314, 49.2906631 ], [ -123.059878, 49.2911944 ], [ -123.0591361, 49.291492 ], [ -123.0587085, 49.2911046 ], [ -123.0578975, 49.2915006 ], [ -123.0577042, 49.2913838 ], [ -123.057004, 49.2918879 ], [ -123.0562762, 49.2918623 ], [ -123.0558758, 49.2921585 ], [ -123.0544603, 49.2926456 ], [ -123.0517218, 49.2934325 ], [ -123.0501979, 49.2938704 ], [ -123.0498553, 49.2938163 ], [ -123.0497433, 49.2933122 ], [ -123.0495369, 49.2931954 ], [ -123.0492754, 49.2931868 ], [ -123.0491119, 49.2935386 ], [ -123.0482319, 49.2934389 ], [ -123.0473937, 49.2937636 ], [ -123.0467734, 49.2937907 ], [ -123.0462922, 49.2936198 ], [ -123.0459487, 49.292882 ], [ -123.0442702, 49.2921457 ], [ -123.0439672, 49.2921372 ], [ -123.0430737, 49.2924975 ], [ -123.042744, 49.2924975 ], [ -123.0405156, 49.2920745 ], [ -123.0398134, 49.2915447 ], [ -123.0395646, 49.2912114 ], [ -123.039002, 49.2908696 ], [ -123.0373086, 49.2908255 ], [ -123.0368273, 49.2906816 ], [ -123.035013, 49.2904936 ], [ -123.0341869, 49.2903227 ], [ -123.033858, 49.2903327 ], [ -123.0341055, 49.2906375 ], [ -123.0341878, 49.2909793 ], [ -123.0338295, 49.2910064 ], [ -123.0336378, 49.2907187 ], [ -123.0324965, 49.290656 ], [ -123.0317389, 49.2904224 ], [ -123.0289345, 49.2921144 ], [ -123.0300501, 49.291962 ], [ -123.0301451, 49.2920517 ], [ -123.0346687, 49.2911773 ], [ -123.0346829, 49.2913667 ], [ -123.0279447, 49.292808 ], [ -123.0278346, 49.2926641 ], [ -123.0274788, 49.292771 ], [ -123.0269013, 49.2927268 ], [ -123.0261031, 49.293012 ], [ -123.025291, 49.2933022 ], [ -123.023889, 49.2934745 ], [ -123.023086, 49.2934953 ], [ -123.0230851, 49.2934006 ], [ -123.023083, 49.2933068 ], [ -123.0230816, 49.2932906 ], [ -123.0230615, 49.2930575 ], [ -123.0230769, 49.2929941 ], [ -123.0231248, 49.2927882 ], [ -123.0231514, 49.2926539 ], [ -123.0231597, 49.2923145 ], [ -123.0232236, 49.2919667 ], [ -123.0232293, 49.2916379 ], [ -123.0232311, 49.2915312 ], [ -123.0232387, 49.2910897 ], [ -123.0232461, 49.2906954 ], [ -123.0232514, 49.2901848 ], [ -123.0232526, 49.289739 ], [ -123.0232682, 49.2892818 ], [ -123.0232736, 49.2888057 ], [ -123.0232747, 49.2887149 ], [ -123.0232753, 49.2886609 ], [ -123.0232786, 49.2883697 ], [ -123.0232813, 49.2879061 ], [ -123.0232836, 49.2875006 ], [ -123.0232882, 49.2870516 ], [ -123.0232928, 49.2866073 ], [ -123.0232931, 49.2865983 ], [ -123.0233088, 49.2861521 ], [ -123.0233262, 49.2856597 ], [ -123.0233327, 49.2852165 ], [ -123.0233396, 49.284744 ], [ -123.0233397, 49.2847349 ], [ -123.0233426, 49.284308 ], [ -123.0233456, 49.283866 ], [ -123.0233457, 49.2838569 ], [ -123.0233525, 49.2829653 ], [ -123.0233526, 49.2829563 ], [ -123.0233671, 49.2825091 ], [ -123.0233817, 49.2820583 ], [ -123.023382, 49.2820492 ], [ -123.0233922, 49.2811487 ], [ -123.0233923, 49.2811397 ], [ -123.0233925, 49.280683 ], [ -123.0233928, 49.2802417 ], [ -123.0233928, 49.2802326 ], [ -123.0233953, 49.2798015 ], [ -123.0233981, 49.2793365 ], [ -123.0234024, 49.2790547 ], [ -123.0233984, 49.2784754 ], [ -123.0234066, 49.2782405 ], [ -123.0234044, 49.2777318 ], [ -123.0234037, 49.2775577 ], [ -123.0234096, 49.2766525 ], [ -123.0234084, 49.2763931 ], [ -123.0234217, 49.2757566 ], [ -123.0234177, 49.2749413 ], [ -123.0234171, 49.2748224 ], [ -123.023424, 49.2741164 ], [ -123.0234237, 49.2739056 ], [ -123.0234286, 49.2731869 ], [ -123.0234316, 49.2729915 ], [ -123.0234355, 49.2721161 ], [ -123.0234572, 49.2711997 ], [ -123.0234676, 49.2702884 ], [ -123.0234614, 49.2695288 ], [ -123.0234592, 49.2693919 ], [ -123.0234516, 49.2684611 ], [ -123.0234516, 49.2684521 ], [ -123.023458, 49.2666273 ], [ -123.0234799, 49.2656443 ], [ -123.0234801, 49.2655551 ], [ -123.0234835, 49.2636608 ], [ -123.023496, 49.263059 ], [ -123.0235086, 49.262453 ], [ -123.0235116, 49.2623057 ], [ -123.0235275, 49.2615407 ], [ -123.0235383, 49.2612654 ], [ -123.0235461, 49.2610998 ], [ -123.0235438, 49.2607935 ], [ -123.0235308, 49.2600968 ], [ -123.0235243, 49.2598768 ], [ -123.023521, 49.2598233 ], [ -123.0234771, 49.2591135 ], [ -123.0234827, 49.2582128 ], [ -123.0234956, 49.2573277 ], [ -123.0234985, 49.2564261 ], [ -123.0235011, 49.2555234 ], [ -123.0235017, 49.2553047 ], [ -123.0235045, 49.2547255 ], [ -123.0235066, 49.2542013 ], [ -123.0235088, 49.2533105 ], [ -123.0235089, 49.2532832 ], [ -123.0235096, 49.2531361 ], [ -123.0235129, 49.2524107 ], [ -123.023515, 49.251501 ], [ -123.0235181, 49.250667 ], [ -123.0235182, 49.2506579 ], [ -123.0235266, 49.2497357 ], [ -123.0235323, 49.2488413 ], [ -123.0235323, 49.2488323 ], [ -123.0235392, 49.2479119 ], [ -123.0235437, 49.2470563 ], [ -123.0235438, 49.2470473 ], [ -123.0235513, 49.2461809 ], [ -123.0235544, 49.2453562 ], [ -123.0235562, 49.2448982 ], [ -123.0235564, 49.2448442 ], [ -123.0235565, 49.244828 ], [ -123.023558, 49.2444281 ], [ -123.0235599, 49.242985 ], [ -123.023565, 49.2425703 ], [ -123.0235651, 49.2425613 ], [ -123.0235713, 49.2420575 ], [ -123.0235713, 49.2420485 ], [ -123.0235706, 49.2415303 ], [ -123.0235705, 49.2414908 ], [ -123.0235698, 49.2409675 ], [ -123.0235549, 49.2403935 ], [ -123.0235508, 49.2402364 ], [ -123.0234468, 49.2395669 ], [ -123.0234295, 49.2377603 ], [ -123.0234268, 49.2369882 ], [ -123.0234313, 49.2362118 ], [ -123.0234482, 49.2349242 ], [ -123.0234505, 49.2347518 ], [ -123.0234508, 49.2347263 ], [ -123.0234524, 49.2346093 ], [ -123.0234538, 49.2345013 ], [ -123.0234561, 49.2343253 ], [ -123.0234765, 49.2322945 ], [ -123.0234765, 49.2322855 ], [ -123.0234767, 49.2308576 ], [ -123.0234948, 49.2307691 ], [ -123.0234984, 49.2307514 ], [ -123.0235307, 49.2305934 ], [ -123.0235182, 49.2296799 ], [ -123.023515, 49.229446 ], [ -123.0235121, 49.2292344 ], [ -123.0235098, 49.228093 ], [ -123.0235237, 49.2263764 ], [ -123.0234798, 49.2251987 ], [ -123.0234811, 49.2250295 ], [ -123.0234842, 49.2246376 ], [ -123.0234947, 49.2232524 ], [ -123.0234954, 49.2232432 ], [ -123.0235098, 49.22306 ], [ -123.0235008, 49.22273 ], [ -123.0236111, 49.2219511 ], [ -123.0236122, 49.2219262 ], [ -123.0236529, 49.2209785 ], [ -123.0236507, 49.2201497 ], [ -123.0236506, 49.2200869 ], [ -123.0236484, 49.2192533 ], [ -123.0236463, 49.218418 ], [ -123.023646, 49.2183281 ], [ -123.0236447, 49.2178376 ], [ -123.0236445, 49.2177477 ], [ -123.0236438, 49.2174738 ], [ -123.0236418, 49.216702 ], [ -123.0236416, 49.216612 ], [ -123.0236393, 49.2157308 ], [ -123.023637, 49.2148289 ], [ -123.0236369, 49.2148036 ], [ -123.0236343, 49.213869 ], [ -123.0236341, 49.2138036 ], [ -123.0236335, 49.2135894 ], [ -123.0236314, 49.2128511 ], [ -123.0236303, 49.2124441 ], [ -123.0236671, 49.2120352 ], [ -123.0237103, 49.2092473 ], [ -123.0237029, 49.2092252 ], [ -123.0236999, 49.2092164 ], [ -123.0236231, 49.2087261 ], [ -123.0235373, 49.2081777 ], [ -123.0234126, 49.2075959 ], [ -123.0233482, 49.2069539 ], [ -123.0233415, 49.2068868 ], [ -123.0233864, 49.2055007 ], [ -123.0233861, 49.2054827 ], [ -123.0233835, 49.2053313 ], [ -123.0233826, 49.2045322 ], [ -123.0234348, 49.2044237 ], [ -123.0234256, 49.2042883 ], [ -123.0234018, 49.2039327 ], [ -123.0233767, 49.2034456 ], [ -123.0232042, 49.2029912 ], [ -123.0229365, 49.2026073 ], [ -123.0232533, 49.2024377 ], [ -123.0233857, 49.202235 ], [ -123.0234276, 49.201474 ], [ -123.0234174, 49.2013589 ], [ -123.0231395, 49.1997445 ], [ -123.0241681, 49.2000168 ], [ -123.029777, 49.2012901 ], [ -123.039876, 49.2037751 ], [ -123.0421481, 49.2041327 ], [ -123.0423256, 49.2041577 ], [ -123.047312, 49.2046459 ], [ -123.0475249, 49.2046437 ], [ -123.0506695, 49.2045714 ], [ -123.0550448, 49.2045708 ], [ -123.0563554, 49.2046536 ], [ -123.0564445, 49.2046597 ], [ -123.058769, 49.2046564 ], [ -123.0593893, 49.2047558 ], [ -123.0632229, 49.2053541 ], [ -123.0666042, 49.2059385 ], [ -123.0668824, 49.2059802 ], [ -123.0675271, 49.2061472 ], [ -123.0682979, 49.2064785 ], [ -123.0685214, 49.2065729 ], [ -123.0692401, 49.206827 ], [ -123.0701393, 49.2071991 ], [ -123.0709884, 49.2075505 ], [ -123.0712691, 49.2076446 ], [ -123.0721485, 49.2078999 ], [ -123.073132, 49.2081348 ], [ -123.0744633, 49.2083308 ], [ -123.0762587, 49.2082822 ], [ -123.0772151, 49.2081082 ], [ -123.0773985, 49.2080703 ], [ -123.0806428, 49.2073987 ], [ -123.0833353, 49.2067926 ], [ -123.088642, 49.2057874 ], [ -123.0912596, 49.2052994 ], [ -123.091743, 49.2052396 ], [ -123.0934521, 49.2048315 ], [ -123.093592, 49.2048175 ], [ -123.0978194, 49.2041965 ], [ -123.097901, 49.2041845 ], [ -123.1000412, 49.2040333 ], [ -123.1014291, 49.2040809 ], [ -123.1015604, 49.2040845 ], [ -123.1018464, 49.2040967 ], [ -123.1091285, 49.2045342 ], [ -123.1135061, 49.204761 ], [ -123.1151059, 49.2043104 ], [ -123.1157108, 49.2041401 ], [ -123.1159703, 49.2040891 ], [ -123.116133, 49.2040572 ], [ -123.1165634, 49.2039771 ], [ -123.1167299, 49.2039462 ], [ -123.1170277, 49.2038746 ], [ -123.1173221, 49.2038003 ], [ -123.1219072, 49.2018527 ], [ -123.1258311, 49.2001247 ], [ -123.1259097, 49.2000626 ], [ -123.126545, 49.1995596 ], [ -123.1268121, 49.1993481 ], [ -123.1303807, 49.1988461 ], [ -123.1308118, 49.1987718 ], [ -123.1324229, 49.1985349 ], [ -123.1358564, 49.1990555 ], [ -123.1359882, 49.1990755 ], [ -123.1366295, 49.1991349 ], [ -123.1402272, 49.2001973 ], [ -123.1408524, 49.2019135 ], [ -123.1412055, 49.2019871 ], [ -123.1474229, 49.2045406 ], [ -123.1507274, 49.2053477 ], [ -123.1535501, 49.207401 ], [ -123.1552811, 49.209299 ], [ -123.1556237, 49.2095449 ], [ -123.1569248, 49.2104783 ], [ -123.1635435, 49.2135876 ], [ -123.1682373, 49.2144601 ], [ -123.1701318, 49.214695 ], [ -123.1721877, 49.2149612 ], [ -123.1803549, 49.2156985 ], [ -123.191296, 49.2194397 ] ], [ [ -123.1701044, 49.2546171 ], [ -123.1701079, 49.2541772 ], [ -123.1701116, 49.2537102 ], [ -123.1701044, 49.2546171 ] ], [ [ -123.1881079, 49.2480874 ], [ -123.1880894, 49.2490282 ], [ -123.1880986, 49.2485625 ], [ -123.1881079, 49.2480874 ] ], [ [ -123.1908322, 49.2528799 ], [ -123.1908343, 49.2524539 ], [ -123.1908367, 49.2519658 ], [ -123.1908322, 49.2528799 ] ], [ [ -123.171116, 49.2674914 ], [ -123.1710729, 49.2684225 ], [ -123.1710928, 49.2679929 ], [ -123.171116, 49.2674914 ] ], [ [ -123.1564172, 49.2298917 ], [ -123.1557611, 49.2298809 ], [ -123.1586793, 49.2299291 ], [ -123.1564172, 49.2298917 ] ], [ [ -123.1529424, 49.256212 ], [ -123.1528926, 49.2572925 ], [ -123.1529359, 49.2563533 ], [ -123.1529424, 49.256212 ] ], [ [ -123.1604651, 49.2726694 ], [ -123.1596948, 49.2726578 ], [ -123.1607402, 49.2726736 ], [ -123.1604651, 49.2726694 ] ], [ [ -123.1361748, 49.2616554 ], [ -123.1361924, 49.2612025 ], [ -123.1362098, 49.2607547 ], [ -123.1361748, 49.2616554 ] ], [ [ -123.1291828, 49.2790779 ], [ -123.1286259, 49.2794487 ], [ -123.1286479, 49.2794341 ], [ -123.1291828, 49.2790779 ] ], [ [ -123.1204558, 49.284851 ], [ -123.121097, 49.2844091 ], [ -123.1200173, 49.2851532 ], [ -123.1204558, 49.284851 ] ], [ [ -123.0852054, 49.2642999 ], [ -123.0871442, 49.2643162 ], [ -123.0832693, 49.2642836 ], [ -123.0852054, 49.2642999 ] ], [ [ -123.0977186, 49.2188288 ], [ -123.0977262, 49.2185679 ], [ -123.0977313, 49.2183924 ], [ -123.0977186, 49.2188288 ] ], [ [ -123.0942144, 49.2204691 ], [ -123.094222, 49.2200139 ], [ -123.0942069, 49.2209125 ], [ -123.0942144, 49.2204691 ] ], [ [ -123.0904476, 49.2369607 ], [ -123.0904947, 49.2356909 ], [ -123.0904628, 49.2365503 ], [ -123.0904476, 49.2369607 ] ], [ [ -123.093941, 49.2524206 ], [ -123.0939622, 49.2519732 ], [ -123.0939193, 49.2528782 ], [ -123.093941, 49.2524206 ] ], [ [ -123.0772654, 49.2767596 ], [ -123.0772761, 49.2763333 ], [ -123.0772881, 49.275855 ], [ -123.0772654, 49.2767596 ] ], [ [ -123.0734664, 49.2453911 ], [ -123.073433, 49.2463991 ], [ -123.0734473, 49.2459678 ], [ -123.0734664, 49.2453911 ] ], [ [ -123.077482, 49.2596286 ], [ -123.0774809, 49.2605186 ], [ -123.0774815, 49.2600603 ], [ -123.077482, 49.2596286 ] ], [ [ -123.0833407, 49.260569 ], [ -123.0833304, 49.2614551 ], [ -123.0833353, 49.261037 ], [ -123.0833407, 49.260569 ] ], [ [ -123.0656469, 49.2752786 ], [ -123.065649, 49.2751684 ], [ -123.065655, 49.2748449 ], [ -123.0656469, 49.2752786 ] ], [ [ -123.0552828, 49.218033 ], [ -123.0553501, 49.2179824 ], [ -123.0558088, 49.2176375 ], [ -123.0552828, 49.218033 ] ], [ [ -123.0516435, 49.2424295 ], [ -123.0527467, 49.2428965 ], [ -123.0521822, 49.2426575 ], [ -123.0516435, 49.2424295 ] ], [ [ -123.0520293, 49.2737201 ], [ -123.0520406, 49.273275 ], [ -123.0520186, 49.2741409 ], [ -123.0520293, 49.2737201 ] ], [ [ -123.0468609, 49.2732649 ], [ -123.0468672, 49.2741793 ], [ -123.0468641, 49.2737226 ], [ -123.0468609, 49.2732649 ] ], [ [ -123.0519997, 49.2782866 ], [ -123.0520067, 49.2778584 ], [ -123.052013, 49.2774718 ], [ -123.0519997, 49.2782866 ] ], [ [ -123.033764, 49.247863 ], [ -123.0337749, 49.2470967 ], [ -123.0337638, 49.247872 ], [ -123.033764, 49.247863 ] ], [ [ -123.0365211, 49.2629117 ], [ -123.0365201, 49.2624913 ], [ -123.0365186, 49.2618974 ], [ -123.0365211, 49.2629117 ] ] ] } }
]
}
